{"fetched_at":"2026-03-29T16:36:15Z","count":15609,"tles":[{"name":"STARLINK-2613","line1":"1 48353U 21038A   26087.78342131 -.00001384  00000+0 -34629-4 0  9994","line2":"2 48353  53.1589 269.4310 0001668  74.2093 285.9092 15.30188029270008","category":"Starlink"}]}