{
  "norad_id": 48353,
  "name": "STARLINK-2613",
  "history": [
    {
      "epoch": "2026-03-28T18:48:07.601184Z",
      "apogee_km": 476.39409505550793,
      "perigee_km": 474.10753074561217,
      "latitude_deg": 3.499967146764404e-05,
      "longitude_deg": 161.20044331769407,
      "height_km": 475.8371837467874,
      "semi_major_axis_km": 6853.38781290056,
      "eccentricity": 0.00016682,
      "inclination_deg": 53.1589,
      "raan_deg": 269.431,
      "arg_perigee_deg": 74.2093,
      "mean_anomaly_deg": 285.9092,
      "mean_motion_rev_day": 15.30188029
    }
  ]
}